Name	City	State	Zip
Strong, Vivien Y.	Anchorage	AK	99841
Alvarado, Grace M.	Tuscaloosa	AL	35751
Joyce, Dean T.	Mobile	AL	36652
Padilla, Carolyn R.	Fort Smith	AR	71817
Mcdowell, Brynne D.	Mesa	AZ	86806
Montoya, Geoffrey H.	Tucson	AZ	85386
Woodward, Nelle A.	Mesa	AZ	86141
English, Kennedy I.	Lakewood	CO	93403
Perry, Geraldine S.	Denver	CO	70614
Sullivan, Cecilia B.	Lakewood	CO	52863
Wood, Hilda X.	Lakewood	CO	97620
Dorsey, Shay Z.	Hartford	CT	47498
Taylor, Boris T.	Stamford	CT	86131
Vega, Rebekah B.	New Haven	CT	70253
Hendrix, Jarrod C.	Dover	DE	72387
Ware, Caesar V.	Wilmington	DE	30694
Atkinson, Rosalyn O.	Tampa	FL	34986
Landry, Jakeem C.	Orlando	FL	62162
Bradshaw, Ashton R.	Athens	GA	26897
Skinner, Brenda C.	Columbus	GA	19921
Walton, Hashim Z.	Atlanta	GA	98444
William, Chaim P.	Atlanta	GA	49107
Bruce, Vielka C.	Cedar Rapids	IA	54781
Cole, Glenna V.	Iowa City	IA	29084
Witt, Isabella E.	Sioux City	IA	84207
Delaney, Josephine I.	Pocatello	ID	22626
Butler, Tallulah K.	Joliet	IL	76241
Hanson, Abel M.	Aurora	IL	16462
Mcfadden, Dexter P.	Joliet	IL	54934
Ward, Dane O.	Joliet	IL	58470
Ellison, Garrison K.	Indianapolis	IN	37649
Gray, Kessie U.	Gary	IN	46523
Mooney, Remedios V.	Gary	IN	80365
Avila, Ella A.	Overland Park	KS	21381
Miller, Brynn Z.	Topeka	KS	93776
Reid, Aaron N.	Topeka	KS	70878
Faulkner, Tara B.	Frankfort	KY	56977
Gray, Tamekah J.	Owensboro	KY	56173
Lamb, Xander R.	Covington	KY	56778
Rutledge, Reed S.	Louisville	KY	88795
Coleman, Jeanette O.	Lowell	MA	87270
Thomas, Rashad G.	Springfield	MA	35629
Romero, Madeson Z.	Gaithersburg	MD	99581
Alexander, Samson O.	Portland	ME	65950
Calhoun, Christen A.	Auburn	ME	42828
Cash, Casey O.	Lewiston	ME	20176
Chavez, Kirsten H.	South Portland	ME	22968
Harrell, Belle I.	Portland	ME	43294
Lester, Adele H.	Augusta	ME	59686
Medina, Desirae Q.	South Portland	ME	66834
Owen, Jin P.	Auburn	ME	87922
Reyes, Reece A.	Lewiston	ME	51844
Schmidt, Murphy E.	Detroit	MI	24385
Alvarez, Chadwick N.	Bloomington	MN	70662
Hansen, Jack W.	Saint Paul	MN	62414
Heath, Dara R.	Rochester	MN	80649
Dillon, Steven L.	Saint Louis	MO	38170
Mcfadden, Jamalia K.	Springfield	MO	42953
Simon, Willa P.	Columbia	MO	74040
Avery, Jelani B.	Gulfport	MS	40760
Blair, Xenos G.	Hattiesburg	MS	44959
Marks, Ronan V.	Jackson	MS	60040
Crane, Bethany X.	Bozeman	MT	24249
Tyson, Miranda M.	Helena	MT	51411
Wooten, Hillary F.	Great Falls	MT	83491
Byers, Palmer M.	Grand Island	NE	54771
Walter, Conan M.	Bellevue	NE	81730
Allison, Lewis G.	North Las Vegas	NV	73152
Barlow, Channing P.	Reno	NV	49227
Brady, Arsenio J.	Reno	NV	52606
Harper, Jane E.	Carson City	NV	77714
Terry, Kylan O.	Reno	NV	12825
Walls, Denton P.	Carson City	NV	43331
Stone, Christen X.	Cincinnati	OH	26619
Blackburn, Victor H.	Norman	OK	87178
Dixon, Claire J.	Tulsa	OK	22648
Holcomb, Ali F.	Broken Arrow	OK	32321
Talley, Caryn Y.	Tulsa	OK	84222
Powers, Sawyer U.	Eugene	OR	86752
Pace, Cynthia X.	Pittsburgh	PA	98823
Prince, Odessa S.	Nashville	TN	77401
Navarro, Darius E.	San Antonio	TX	87920
Frye, Winter I.	West Jordan	UT	33709
Sweeney, Alexa K.	West Jordan	UT	37121
Talley, Francesca S.	Salt Lake City	UT	37260
Wise, Kim D.	Provo	UT	13889
Brewer, Sigourney H.	Norfolk	VA	69083
Garner, Quon Y.	Newport News	VA	59376
Mooney, Sopoline F.	Virginia Beach	VA	26544
Wheeler, Tobias J.	Norfolk	VA	64844
Cochran, Nicholas T.	South Burlington	VT	20927
Gutierrez, Rigel Y.	Montpelier	VT	58493
Pollard, Wade F.	Rutland	VT	94164
Cote, Kylynn V.	Vancouver	WA	45902
Porter, Odessa Y.	Olympia	WA	54804
Osborne, Mufutau V.	Racine	WI	94794
Rojas, Dale H.	Milwaukee	WI	18716
David, Stephanie K.	Gillette	WY	98164
Mitchell, Indigo Z.	Laramie	WY	13890
Rios, Shana K.	Rock Springs	WY	72522
